1 33504U 09003A   09126.21095202  .00000917  00000-0  62055-4 0   794
2 33504  82.4760 265.9639 0014421 220.0466 139.9700 15.05266227 14398
1 33504U 09003A   09126.21095202  .00000917  00000-0  62055-4 0   794
2 33504  82.4760 265.9639 0014421 220.0466 139.9700 15.05266227 14398
1 33504U 09003A   09127.40750897  .00000751  00000-0  50493-4 0   805
2 33504  82.4763 264.7978 0014537 215.1663 144.8594 15.05266954 14579
1 33504U 09003A   09128.53759059  .00000580  00000-0  38528-4 0   815
2 33504  82.4768 263.6971 0014638 210.9948 149.0407 15.05267182 14749
1 33504U 09003A   09129.86709891  .00000343  00000-0  21965-4 0   826
2 33504  82.4771 262.4016 0014843 205.7349 154.3133 15.05266658 14949
1 33504U 09003A   09129.93357437  .00000314  00000-0  19901-4 0   835
2 33504  82.4771 262.3368 0014922 205.2534 154.7954 15.05266479 14954
1 33504U 09003A   09131.06365674  .00000184  00000-0  10795-4 0   831
2 33504  82.4771 261.2353 0015095 200.7126 159.3490 15.05266010 15122
1 33504U 09003A   09132.59259300  .00000039  00000-0  67879-6 0   845
2 33504  82.4772 259.7456 0015845 193.7585 166.3205 15.05264232 15353
1 33504U 09003A   09132.85849505  .00000039  00000-0  67879-6 0   891
2 33504  82.4772 259.4864 0015877 192.8645 167.2179 15.05264162 15391
1 33504U 09003A   09134.38743204  .00000039  00000-0  67879-6 0   856
2 33504  82.4773 257.9965 0016039 186.9857 173.1137 15.05263735 15628
1 33504U 09003A   09135.45104114  .00000039  00000-0  67879-6 0   867
2 33504  82.4771 256.9598 0016087 183.0720 177.0408 15.05263379 15782
1 33504U 09003A   09136.84702819  .00000039  00000-0  67879-6 0   878
2 33504  82.4771 255.5990 0016088 178.2706 181.8576 15.05262854 15993
1 33504U 09003A   09138.37596727  .00000039  00000-0  67879-6 0   888
2 33504  82.4776 254.1094 0016156 172.4840 187.6628 15.05262284 16225
1 33504U 09003A   09139.77195492  .00000039  00000-0  67879-6 0   898
2 33504  82.4771 252.7488 0016299 167.7678 192.3945 15.05261854 16435
1 33504U 09003A   09140.83556496  .00000039  00000-0  67879-6 0   904
2 33504  82.4768 251.7123 0016335 163.9962 196.1783 15.05261559 16592
1 33504U 09003A   09142.63040595  .00000039  00000-0  67879-6 0   913
2 33504  82.4763 249.9631 0016382 157.8373 202.3554 15.05261308 16868
1 33504U 09003A   09143.89344157  .00000077  00000-0  32987-5 0   927
2 33504  82.4765 248.7324 0016413 153.4316 206.7754 15.05261687 17052
1 33504U 09003A   09145.22295045  .00000195  00000-0  11591-4 0   936
2 33504  82.4768 247.4370 0016431 148.9991 211.2211 15.05263002 17254
1 33504U 09003A   09146.41950588  .00000384  00000-0  24734-4 0   942
2 33504  82.4772 246.2715 0016422 145.1940 215.0365 15.05265106 17431
1 33504U 09003A   09147.81548500  .00000636  00000-0  42386-4 0   958
2 33504  82.4777 244.9117 0016599 140.5166 219.7275 15.05268242 17649
1 33504U 09003A   09148.87908589  .00000831  00000-0  55971-4 0   964
2 33504  82.4782 243.8757 0016585 136.9973 223.2552 15.05271132 17801
1 33504U 09003A   09148.94556103  .00000828  00000-0  55793-4 0   972
2 33504  82.4782 243.8109 0016588 136.7790 223.4741 15.05271220 17811
1 33504U 09003A   09150.20858488  .00001009  00000-0  68427-4 0   975
2 33504  82.4782 242.5800 0016540 132.6542 227.6087 15.05274758 18003
1 33504U 09003A   09151.53808254  .00000999  00000-0  67703-4 0   982
2 33504  82.4777 241.2836 0016836 128.6949 231.5786 15.05277264 18203
1 33504U 09003A   09152.86757904  .00000880  00000-0  59351-4 0   994
2 33504  82.4781 239.9886 0016979 124.8549 235.4276 15.05278892 18406
1 33504U 09003A   09152.93405382  .00000877  00000-0  59186-4 0  1007
2 33504  82.4780 239.9238 0016982 124.6398 235.6431 15.05278987 18411
1 33504U 09003A   09154.19707557  .00000674  00000-0  44978-4 0  1004
2 33504  82.4783 238.6935 0017153 120.7454 239.5459 15.05279408 18608
1 33504U 09003A   09155.26067336  .00000391  00000-0  25233-4 0  1017
2 33504  82.4779 237.6577 0017514 118.7959 241.5009 15.05277972 18767
1 33504U 09003A   09156.52369617  .00000270  00000-0  16800-4 0  1021
2 33504  82.4779 236.4269 0017583 114.6352 245.6706 15.05277712 18952
1 33504U 09003A   09157.85319482  .00000062  00000-0  22453-5 0  1035
2 33504  82.4778 235.1311 0017683 110.5020 249.8105 15.05276465 19159
1 33504U 09003A   09157.91966969  .00000060  00000-0  21377-5 0  1043
2 33504  82.4777 235.0663 0017687 110.2907 250.0222 15.05276457 19168
1 33504U 09003A   09159.18269338 -.00000094  00000-0 -86179-5 0  1040
2 33504  82.4780 233.8361 0017865 106.3532 253.9641 15.05275205 19359
1 33504U 09003A   09160.24629385 -.00000199  00000-0 -15946-4 0  1051
2 33504  82.4778 232.8007 0017996 103.8276 256.4953 15.05273206 19515
1 33504U 09003A   09161.44284334 -.00000204  00000-0 -16310-4 0  1069
2 33504  82.4777 231.6347 0018085 100.1103 260.2165 15.05272625 19698
1 33504U 09003A   09162.77234289 -.00000193  00000-0 -15548-4 0  1070
2 33504  82.4778 230.3394 0018219  95.9966 264.3337 15.05272109 19899
1 33504U 09003A   09163.83594312 -.00000204  00000-0 -16340-4 0  1089
2 33504  82.4779 229.3031 0018299  92.6010 267.7312 15.05271505 20057
1 33504U 09003A   09165.23191882 -.00000225  00000-0 -17784-4 0  1097
2 33504  82.4775 227.9436 0018460  88.7865 271.5477 15.05270633 20269
1 33504U 09003A   09166.56141959 -.00000215  00000-0 -17085-4 0  1109
2 33504  82.4775 226.6481 0018479  84.3871 275.9467 15.05270073 20461
1 33504U 09003A   09167.82444506 -.00000180  00000-0 -14673-4 0  1115
2 33504  82.4769 225.4167 0018511  80.1654 280.1662 15.05269777 20657
1 33504U 09003A   09169.22041999 -.00000103  00000-0 -92719-5 0  1124
2 33504  82.4770 224.0565 0018476  75.5005 284.8272 15.05269879 20868
1 33504U 09003A   09170.48344355  .00000030  00000-0 -10018-7 0  1139
2 33504  82.4772 222.8259 0018451  71.1763 289.1463 15.05270686 21052
1 33504U 09003A   09173.54129243  .00000611  00000-0  40583-4 0  1148
2 33504  82.4772 219.8456 0018451  60.7621 299.6116 15.05277618 21518
1 33504U 09003A   09174.80429621  .00000686  00000-0  45838-4 0  1163
2 33504  82.4758 218.6129 0018411  56.7596 303.5391 15.05279915 21701
1 33504U 09003A   09176.20025817  .00000817  00000-0  54954-4 0  1174
2 33504  82.4747 217.2511 0018272  52.2347 308.0530 15.05282950 21910
1 33504U 09003A   09177.52974459  .00000864  00000-0  58259-4 0  1180
2 33504  82.4760 215.9569 0018203  48.2039 312.0751 15.05285453 22114
1 33504U 09003A   09177.79564167  .00000845  00000-0  56870-4 0  1221
2 33504  82.4761 215.6979 0018199  47.2472 313.0281 15.05285748 22151
1 33504U 09003A   09178.79275589  .00000766  00000-0  51423-4 0  1196
2 33504  82.4767 214.7269 0018116  44.2627 316.0044 15.05286768 22307
1 33504U 09003A   09180.18871571  .00000582  00000-0  38527-4 0  1203
2 33504  82.4770 213.3672 0018030  40.2609 319.9946 15.05287281 22512
1 33504U 09003A   09181.25230433  .00000407  00000-0  26363-4 0  1210
2 33504  82.4772 212.3314 0017970  37.0577 323.1886 15.05287055 22672
1 33504U 09003A   09182.51531622  .00000160  00000-0  90775-5 0  1220
2 33504  82.4776 211.1016 0017734  33.4684 326.7649 15.05285924 22869
1 33504U 09003A   09182.78121359  .00000130  00000-0  70504-5 0  1271
2 33504  82.4775 210.8424 0017714  32.5264 327.7049 15.05285775 22903
1 33504U 09003A   09184.11069992  .00000035  00000-0  37437-6 0  1233
2 33504  82.4758 209.5482 0017005  30.1047 330.1131 15.05284394 23108
1 33504U 09003A   09185.24076457  .00000035  00000-0  37437-6 0  1243
2 33504  82.4756 208.4470 0016843  26.8745 333.3349 15.05284069 23270
1 33504U 09003A   09186.76967463  .00000035  00000-0  37437-6 0  1258
2 33504  82.4757 206.9571 0016672  22.0315 338.1557 15.05283439 23507
1 33504U 09003A   09188.09916431  .00000035  00000-0  37437-6 0  1266
2 33504  82.4757 205.6616 0016642  18.4033 341.7717 15.05282618 23704
1 33504U 09003A   09189.56160246  .00000035  00000-0  37437-6 0  1275
2 33504  82.4757 204.2362 0016474  13.5424 346.6136 15.05281816 23922
1 33504U 09003A   09191.02404326  .00000035  00000-0  37437-6 0  1280
2 33504  82.4753 202.8109 0016609   8.6882 351.4559 15.05280896 24149
1 33504U 09003A   09192.22058774  .00000035  00000-0  37437-6 0  1296
2 33504  82.4748 201.6448 0016547   5.2611 354.8782 15.05280019 24322
1 33504U 09003A   09192.95180721  .00000035  00000-0  37437-6 0  1340
2 33504  82.4747 200.9320 0016587   2.4244 357.6996 15.05279536 24439
1 33504U 09003A   09194.08187710  .00000035  00000-0  37437-6 0  1307
2 33504  82.4745 199.8307 0016477 358.9050   1.2132 15.05278872 24605
1 33504U 09003A   09195.54431824  .00000034  00000-0  37437-6 0  1317
2 33504  82.4746 198.4055 0016341 353.6434   6.4570 15.05278277 24825
1 33504U 09003A   09197.07323325  .00000094  00000-0  45377-5 0  1321
2 33504  82.4749 196.9158 0016341 348.4669  11.6186 15.05278692 25055
1 33504U 09003A   09198.13682392  .00000208  00000-0  12470-4 0  1336
2 33504  82.4754 195.8796 0016292 344.7989  15.2747 15.05279996 25215
1 33504U 09003A   09198.93451662  .00000278  00000-0  17392-4 0  1412
2 33504  82.4758 195.1026 0016192 342.1770  17.8888 15.05280952 25338
1 33504U 09003A   09199.93163014  .00000496  00000-0  32584-4 0  1405
2 33504  82.4760 194.1309 0016138 338.5121  21.5432 15.05283762 25488
1 33504U 09003A   09201.12816474  .00000650  00000-0  43349-4 0  1352
2 33504  82.4763 192.9652 0016118 334.1442  25.8977 15.05286403 25660
1 33504U 09003A   09202.52412057  .00000766  00000-0  51483-4 0  1363
2 33504  82.4768 191.6052 0015930 329.3513  30.6781 15.05289233 25875
1 33504U 09003A   09203.92007510  .00000808  00000-0  54369-4 0  1376
2 33504  82.4768 190.2446 0015845 324.4490  35.5679 15.05291676 26080
1 33504U 09003A   09203.92007510  .00000834  00000-0  56199-4 0  1389
2 33504  82.4768 190.2446 0015877 324.3930  35.6254 15.05291877 26086
1 33504U 09003A   09205.05013264  .00000777  00000-0  52248-4 0  1385
2 33504  82.4770 189.1433 0015684 320.4014  39.6059 15.05293205 26251
1 33504U 09003A   09206.51256076  .00000584  00000-0  38755-4 0  1391
2 33504  82.4773 187.7186 0015524 315.0648  44.9318 15.05293790 26479
